{
  "norad_id": 68669,
  "name": "STARLINK-37302",
  "history": [
    {
      "epoch": "2026-04-22T13:03:29.788128Z",
      "apogee_km": 344.9020334967072,
      "perigee_km": 342.9674212535683,
      "latitude_deg": -1.5599892659897902e-06,
      "longitude_deg": -62.879575608994934,
      "height_km": 347.12816873206543,
      "semi_major_axis_km": 6722.071727375137,
      "eccentricity": 0.0001439,
      "inclination_deg": 97.284,
      "raan_deg": 343.5987,
      "arg_perigee_deg": 91.6182,
      "mean_anomaly_deg": 268.5248,
      "mean_motion_rev_day": 15.75244778
    },
    {
      "epoch": "2026-04-24T09:16:24.942720Z",
      "apogee_km": 344.9913636162046,
      "perigee_km": 343.07688927939125,
      "latitude_deg": 6.076438695163696e-05,
      "longitude_deg": -5.994756263657766,
      "height_km": 346.7223408881526,
      "semi_major_axis_km": 6722.171126447797,
      "eccentricity": 0.0001424,
      "inclination_deg": 97.286,
      "raan_deg": 345.5292,
      "arg_perigee_deg": 60.0413,
      "mean_anomaly_deg": 300.0994,
      "mean_motion_rev_day": 15.75209839
    },
    {
      "epoch": "2026-04-24T09:16:24.943584Z",
      "apogee_km": 344.991565281337,
      "perigee_km": 343.076687614257,
      "latitude_deg": 5.779305832450731e-05,
      "longitude_deg": -5.99475949575018,
      "height_km": 346.72224015816084,
      "semi_major_axis_km": 6722.171126447797,
      "eccentricity": 0.00014243,
      "inclination_deg": 97.286,
      "raan_deg": 345.5292,
      "arg_perigee_deg": 60.0413,
      "mean_anomaly_deg": 300.0994,
      "mean_motion_rev_day": 15.75209839
    },
    {
      "epoch": "2026-04-27T15:01:52.813344Z",
      "apogee_km": 345.13198931487204,
      "perigee_km": 342.5709117152255,
      "latitude_deg": 2.7028680239574822e-05,
      "longitude_deg": -92.15437609999726,
      "height_km": 346.75304711769644,
      "semi_major_axis_km": 6721.9884505150485,
      "eccentricity": 0.0001905,
      "inclination_deg": 97.2847,
      "raan_deg": 348.9291,
      "arg_perigee_deg": 78.1138,
      "mean_anomaly_deg": 282.0341,
      "mean_motion_rev_day": 15.75274051
    },
    {
      "epoch": "2026-04-28T16:57:02.500416Z",
      "apogee_km": 344.81550335087286,
      "perigee_km": 343.3083863474376,
      "latitude_deg": 7.4935903063451e-09,
      "longitude_deg": -120.8758048466687,
      "height_km": 347.3486437778814,
      "semi_major_axis_km": 6722.198944849155,
      "eccentricity": 0.0001121,
      "inclination_deg": 97.2847,
      "raan_deg": 350.0625,
      "arg_perigee_deg": 99.1695,
      "mean_anomaly_deg": 260.9697,
      "mean_motion_rev_day": 15.75200061
    }
  ]
}